{
    "links": {
        "self": "http://www.neowsapp.com/rest/v1/neo/3556962?api_key=iIulBulltgU6a56xZRHN4H3l9WmuAYTsLGpBGhQ2"
    },
    "id": "3556962",
    "neo_reference_id": "3556962",
    "name": "(2011 CZ3)",
    "designation": "2011 CZ3",
    "nasa_jpl_url": "http://ssd.jpl.nasa.gov/sbdb.cgi?sstr=3556962",
    "absolute_magnitude_h": 26.3,
    "estimated_diameter": {
        "kilometers": {
            "estimated_diameter_min": 0.0146067964,
            "estimated_diameter_max": 0.0326617897
        },
        "meters": {
            "estimated_diameter_min": 14.6067964271,
            "estimated_diameter_max": 32.6617897446
        },
        "miles": {
            "estimated_diameter_min": 0.0090762397,
            "estimated_diameter_max": 0.020295089
        },
        "feet": {
            "estimated_diameter_min": 47.92256199,
            "estimated_diameter_max": 107.1581062656
        }
    },
    "is_potentially_hazardous_asteroid": false,
    "close_approach_data": [
        {
            "close_approach_date": "2009-02-08",
            "close_approach_date_full": "2009-Feb-08 13:13",
            "epoch_date_close_approach": 1234098780000,
            "relative_velocity": {
                "kilometers_per_second": "13.8934860672",
                "kilometers_per_hour": "50016.5498420899",
                "miles_per_hour": "31078.3389838253"
            },
            "miss_distance": {
                "astronomical": "0.0076540738",
                "lunar": "2.9774347082",
                "kilometers": "1145033.137302806",
                "miles": "711490.5992624828"
            },
            "orbiting_body": "Moon"
        },
        {
            "close_approach_date": "2009-02-08",
            "close_approach_date_full": "2009-Feb-08 19:03",
            "epoch_date_close_approach": 1234119780000,
            "relative_velocity": {
                "kilometers_per_second": "13.7619856668",
                "kilometers_per_hour": "49543.1484006013",
                "miles_per_hour": "30784.1857381403"
            },
            "miss_distance": {
                "astronomical": "0.0073742846",
                "lunar": "2.8685967094",
                "kilometers": "1103177.268933802",
                "miles": "685482.5686663876"
            },
            "orbiting_body": "Earth"
        },
        {
            "close_approach_date": "2011-02-10",
            "close_approach_date_full": "2011-Feb-10 01:18",
            "epoch_date_close_approach": 1297300680000,
            "relative_velocity": {
                "kilometers_per_second": "13.4383995417",
                "kilometers_per_hour": "48378.2383501884",
                "miles_per_hour": "30060.3559348712"
            },
            "miss_distance": {
                "astronomical": "0.0064314354",
                "lunar": "2.5018283706",
                "kilometers": "962129.036882598",
                "miles": "597839.2613439324"
            },
            "orbiting_body": "Earth"
        },
        {
            "close_approach_date": "2011-02-10",
            "close_approach_date_full": "2011-Feb-10 01:29",
            "epoch_date_close_approach": 1297301340000,
            "relative_velocity": {
                "kilometers_per_second": "14.4043152114",
                "kilometers_per_hour": "51855.5347609979",
                "miles_per_hour": "32221.0126963545"
            },
            "miss_distance": {
                "astronomical": "0.0043787603",
                "lunar": "1.7033377567",
                "kilometers": "655053.214120561",
                "miles": "407031.1929673018"
            },
            "orbiting_body": "Moon"
        }
    ],
    "orbital_data": {
        "orbit_id": "8",
        "orbit_determination_date": "2017-04-06 08:54:38",
        "first_observation_date": "2011-02-05",
        "last_observation_date": "2011-02-09",
        "data_arc_in_days": 4,
        "observations_used": 30,
        "orbit_uncertainty": "8",
        "minimum_orbit_intersection": ".00386438",
        "jupiter_tisserand_invariant": "4.224",
        "epoch_osculation": "2455600.5",
        "eccentricity": ".5103624317323946",
        "semi_major_axis": "1.589449766530808",
        "inclination": "2.058377198817037",
        "ascending_node_longitude": "326.5623515812679",
        "orbital_period": "731.9284647043587",
        "perihelion_distance": ".7782543185676583",
        "perihelion_argument": "241.7180995071809",
        "aphelion_distance": "2.400645214493959",
        "perihelion_time": "2455647.995833889492",
        "mean_anomaly": "336.6391102071381",
        "mean_motion": ".4918513452614684",
        "equinox": "J2000",
        "orbit_class": {
            "orbit_class_type": "APO",
            "orbit_class_description": "Near-Earth asteroid orbits which cross the Earth’s orbit similar to that of 1862 Apollo",
            "orbit_class_range": "a (semi-major axis) > 1.0 AU; q (perihelion) < 1.017 AU"
        }
    },
    "is_sentry_object": false
}